{"epoch":1784902576,"count":18312,"objects":[{"id":"61045","name":"SPACEMOBILE-003","type":"PAYLOAD","l1":"1 61045U 24163A   26205.21727541  .00001431  00000-0  78994-4 0  9996","l2":"2 61045  52.9691 139.1555 0003507 222.9316 137.1405 15.20665838103402"},{"id":"61046","name":"SPACEMOBILE-005","type":"PAYLOAD","l1":"1 61046U 24163B   26205.20082771  .00018580  00000-0  84903-3 0  9994","l2":"2 61046  52.9735 139.1924 0008082 222.5536 137.4832 15.20600133103397"},{"id":"61047","name":"SPACEMOBILE-001","type":"PAYLOAD","l1":"1 61047U 24163C   26205.19905241 -.00000212  00000-0  52172-5 0  9998","l2":"2 61047  52.9700 138.9039 0006560 220.2350 139.8159 15.20668192103399"},{"id":"61048","name":"SPACEMOBILE-002","type":"PAYLOAD","l1":"1 61048U 24163D   26205.24935661  .00026215  00000-0  11952-2 0  9992","l2":"2 61048  52.9772 138.7267 0004809 213.5116 146.5574 15.20485244103402"},{"id":"61049","name":"SPACEMOBILE-004","type":"PAYLOAD","l1":"1 61049U 24163E   26205.23126999  .00025866  00000-0  11742-2 0  9996","l2":"2 61049  52.9740 138.5752 0005285 260.6163  99.4233 15.20638649103406"},{"id":"67232","name":"SPACEMOBILE-006","type":"PAYLOAD","l1":"1 67232U 25309A   26205.29263828  .00003733  00000-0  19277-3 0  9999","l2":"2 67232  52.9950 161.6556 0009259 247.0863 112.9154 15.18701235 32233"},{"id":"69589","name":"SPACEMOBILE-008","type":"PAYLOAD","l1":"1 69589U 26139A   26205.13770182  .00000943  00000-0  69997-4 0  9992","l2":"2 69589  52.9952  94.8071 0005391  76.5282 283.6310 15.12820096  5572"},{"id":"69590","name":"SPACEMOBILE-009","type":"PAYLOAD","l1":"1 69590U 26139B   26205.07421027  .00001531  00000-0  10337-3 0  9995","l2":"2 69590  52.9946  95.1172 0005630  74.3539 285.8073 15.12720385  5569"},{"id":"69591","name":"SPACEMOBILE-010","type":"PAYLOAD","l1":"1 69591U 26139C   26205.21043654  .00001644  00000-0  11018-3 0  9990","l2":"2 69591  52.9949  94.5456 0005650  67.0645 293.0941 15.12558231  5597"}]}